GALAXY 33 (G-33)        
1 54026U 22128A   26064.01780892  .00000000  00000+0  00000+0 0  9993
2 54026   0.0175 165.2977 0001884 177.9169  52.9895  1.00273895 12691
GALAXY 34 (G-34)        
1 54027U 22128B   26064.09072645  .00000050  00000+0  00000+0 0  9997
2 54027   0.0130 129.5428 0001376 217.6718  79.2813  1.00273187 12860
GALAXY 31 (G-31)        
1 54243U 22153A   26064.20272367  .00000004  00000+0  00000+0 0  9990
2 54243   0.0113 189.4745 0001500 166.9254 118.5102  1.00272758  6097
GALAXY 32 (G-32)        
1 54244U 22153B   26063.18586578  .00000000  00000+0  00000+0 0  9995
2 54244   0.0222 132.7365 0003004 225.3208 139.8078  1.00267915 12092
GALAXY 35 (G-35)        
1 54741U 22170A   26064.20818369 -.00000171  00000+0  00000+0 0  9996
2 54741   0.0126 193.9299 0002031 151.6515 159.1994  1.00271036 11857
GALAXY 36 (G-36)        
1 54742U 22170B   26064.20905036 -.00000194  00000+0  00000+0 0  9990
2 54742   0.0169 140.9074 0002042 257.4067 110.8733  1.00272423 11730
GALAXY 37 (G-37)        
1 57493U 23112A   26064.09072645  .00000039  00000+0  00000+0 0  9998
2 57493   0.0201 120.7857 0002051 227.8815  79.8085  1.00272675  9493
